ALOS-4 (DAICHI-4)       
1 60182U 24123A   24281.87349544  .00009751  00000+0  13102-2 0  9990
2 60182  97.9212  16.9093 0001419  92.0743 268.0631 14.79488233 14603
